GLOBALSTAR M084         
1 38040U 11080A   24185.91606529 -.00000087  00000+0  92772-4 0  9999
2 38040  52.0022  28.7376 0000970  65.9632  71.6181 12.62263930578680
GLOBALSTAR M080         
1 38041U 11080B   24185.88195514 -.00000086  00000+0  10131-3 0  9990
2 38041  52.0074  30.3253 0000820  50.2191  52.6915 12.62262451578807
GLOBALSTAR M092         
1 38043U 11080D   24185.86316613 -.00000102  00000+0  10265-4 0  9993
2 38043  52.0091  76.1494 0000839  61.0548  16.5115 12.62263132577963
GLOBALSTAR M090         
1 38044U 11080E   24185.93885856 -.00000103  00000+0  17986-5 0  9991
2 38044  51.9905 339.8204 0000990 117.0225  63.8733 12.62264443579639
GLOBALSTAR M086         
1 38045U 11080F   24185.79976976 -.00000090  00000+0  78390-4 0  9990
2 38045  51.9915 340.7667 0000283 203.0851 306.2827 12.62263901579569
GLOBALSTAR M097         
1 39072U 13005A   24185.87311307 -.00000073  00000+0  17179-3 0  9998
2 39072  52.0037 254.7418 0000572 165.9090 194.1793 12.62264119526826
GLOBALSTAR M093         
1 39073U 13005B   24185.92554938 -.00000072  00000+0  17869-3 0  9999
2 39073  51.9797 248.4401 0000626 181.4376 178.6489 12.62275628526781
